151P/Helin,e,4.7254,143.1233,216.1557,5.766395,0.0711783,0.57255420,250.8895,06/07.0/2025,2000,g 10.0,6.0
# From MPC182888
152P/Helin-Lawrence,e,9.8798,91.7755,164.4435,4.485833,0.1037384,0.30687209,128.7009,06/07.0/2025,2000,g 11.5,4.0
# From MPC 46101
153P/Ikeya-Zhang,e,28.4977,93.8008,34.2224,50.47962,0.0027481,0.99015800,0.0000,03/12.2853/2002,2000,g  9.0,4.0
# From MPC184418
154P/Brewington,e,17.6381,342.9957,47.9314,4.795683,0.0938487,0.67627673,33.6716,06/07.0/2025,2000,g  2.5,12.0
# From MPEC 2022-YN2
155P/Shoemaker,e,6.4107,97.1568,14.5310,6.571874,0.0585019,0.72766796,118.6786,06/07.0/2025,2000,g 10.0,4.8
# From MPEC 2023-J29
156P/Russell-LINEAR,e,17.2610,35.3344,0.5258,3.462657,0.1529642,0.61487037,254.0747,06/07.0/2025,2000,g 15.5,2.0
# From MPEC 2024-D33
157P/Tritton,e,12.4243,287.4983,155.1773,3.547992,0.1474790,0.55679881,147.6029,06/07.0/2025,2000,g 10.0,4.0
# From MPEC 2022-VC5
157P-B/Tritton,e,12.4252,153.8813,287.2084,3.102742,0.1803373,0.49989477,180.8050,06/07.0/2025,2000,g 15.7,4.0
# From MPC182888
158P/Kowal-LINEAR,e,7.4482,124.4475,229.2637,5.684301,0.0727258,0.11741032,73.1649,06/07.0/2025,2000,g  9.0,4.0
# From MPEC 2024-DC6
159P/LONEOS,e,23.4836,54.9389,4.7263,5.855135,0.0695663,0.38255000,178.7020,06/07.0/2025,2000,g 10.0,4.0
# From MPEC 2022-K19
160P/LINEAR,e,15.5950,333.3492,12.7801,3.779703,0.1341274,0.52500961,270.2400,06/07.0/2025,2000,g 15.5,2.0
# From MPC 75721
161P/Hartley-IRAS,e,95.8181,1.5145,47.0675,7.715645,0.0459881,0.83582335,335.2139,06/07.0/2025,2000,g  8.5,6.0
# From MPEC 2025-A40
162P/SidingSpring,e,27.5535,30.8767,357.2370,3.091850,0.1812911,0.58293995,297.4870,06/07.0/2025,2000,g 12.0,4.0
# From MPEC 2021-S45
163P/NEAT,e,12.7212,102.0725,349.6342,3.761072,0.1351253,0.45347996,287.7195,06/07.0/2025,2000,g 14.5,4.0
# From MPEC 2024-TD8
164P/Christensen,e,16.2774,88.2690,325.9523,3.651950,0.1412267,0.54131330,1.4966,06/07.0/2025,2000,g 11.0,4.0
# From MPC 75721
165P/LINEAR,e,15.9084,0.6769,125.8783,17.81450,0.0131082,0.61922601,119.6013,06/07.0/2025,2000,g 11.5,2.0
# From MPC 75722
166P/NEAT,e,15.3778,64.4387,321.8517,13.84166,0.0191391,0.38288373,160.7961,06/07.0/2025,2000,g  5.5,4.0
# From MPEC 2023-J29
167P/CINEOS,e,19.0752,295.8361,344.4500,16.25164,0.0150438,0.26784835,132.9551,06/07.0/2025,2000,g  9.5,2.0
# From MPEC 2023-J29
168P/Hergenrother,e,21.5949,355.3888,15.1000,3.586769,0.1450938,0.62127240,308.7464,06/07.0/2025,2000,g 15.5,4.0
# From MPC184418
169P/NEAT,e,11.2869,176.0585,218.1215,2.603632,0.2346037,0.76804705,249.4249,06/07.0/2025,2000,g 16.0,2.0
# From MPC184418
170P/Christensen,e,10.1295,142.6378,224.7384,4.194356,0.1147377,0.30526452,89.8739,06/07.0/2025,2000,g 12.0,4.0
# From MPC102102
171P/Spahr,e,21.9508,101.7000,347.0896,3.552288,0.1472116,0.50277018,343.8000,06/07.0/2025,2000,g 13.5,4.0
# From MPC184418
172P/Yeung,e,11.2231,30.8826,208.8955,4.223542,0.1135505,0.20489835,343.1348,06/07.0/2025,2000,g 13.0,4.0
# From MPEC 2023-N01
173P/Mueller,e,16.4934,100.3460,29.2903,5.715580,0.0721296,0.26236876,91.3994,06/07.0/2025,2000,g  7.5,4.0
# From MPC 92985
174P/Echeclus,e,4.3409,173.3387,163.4309,10.75890,0.0279288,0.45484806,103.3642,06/07.0/2025,2000,g  9.4,2.0
# From MPC114608
175P/Hergenrother,e,4.9273,109.8170,74.6824,3.691089,0.1389864,0.37603371,297.0392,06/07.0/2025,2000,g 14.0,4.0
# From MPC 89015
176P/LINEAR,e,0.2312,345.6320,34.4714,3.195325,0.1725565,0.19183289,160.5079,06/07.0/2025,2000,g 15.1,2.0
# From MPEC 2020-L06
177P/Barnard,e,31.0065,271.8625,60.7589,24.51010,0.0081224,0.95423487,55.6861,06/07.0/2025,2000,g 15.0,4.0
# From MPEC 2024-R10
178P/Hug-Bell,e,11.0925,102.7847,297.9618,3.632815,0.1423440,0.48228658,254.0405,06/07.0/2025,2000,g 13.5,4.0
# From MPEC 2024-EF7
179P/Jedicke,e,19.8900,115.5083,297.2135,5.937057,0.0681314,0.30542510,75.0913,06/07.0/2025,2000,g  2.5,8.0
# From MPEC 2024-F34
180P/NEAT,e,16.8619,84.5589,94.6044,3.867808,0.1295707,0.35382713,90.1635,06/07.0/2025,2000,g 11.0,4.0
# From MPC 89012
181P/Shoemaker-Levy,e,17.4744,35.4405,336.2927,3.879139,0.1290034,0.69980085,160.7017,06/07.0/2025,2000,g 11.5,4.0
# From MPEC 2024-UQ8
182P/LONEOS,e,16.2309,72.4549,54.2080,2.948754,0.1946464,0.66393392,218.2240,06/07.0/2025,2000,g 18.0,4.0
# From MPEC 2024-VJ2
183P/Korlevic-Juric,e,18.7278,3.5479,162.7099,4.708009,0.0964824,0.10265771,279.7744,06/07.0/2025,2000,g 12.5,2.0
# From MPEC 2020-W26
184P/Lovas,e,4.5700,173.2678,186.5614,3.800791,0.1330127,0.54980978,224.2192,06/07.0/2025,2000,g 13.5,4.0
# From MPEC 2024-F91
185P/Petriew,e,14.0099,214.1225,181.9200,3.099687,0.1806039,0.69941611,125.5572,06/07.0/2025,2000,g 15.0,4.0
# From MPEC 2022-X67
186P/Garradd,e,28.6548,325.8854,268.4981,4.855785,0.0921117,0.12383357,218.1365,06/07.0/2025,2000,g  7.5,4.0
# From MPEC 2020-SI8
187P/LINEAR,e,13.6673,109.8449,131.6378,4.550509,0.1015346,0.15608670,261.3124,06/07.0/2025,2000,g  9.0,4.0
# From MPEC 2023-J29
188P/LINEAR-Mueller,e,10.5247,358.9140,26.8280,4.365210,0.1080678,0.41670519,326.4703,06/07.0/2025,2000,g 11.5,4.0
# From MPEC 2022-QD9
189P/NEAT,e,20.1200,281.6845,16.1831,2.939935,0.1955229,0.59062093,197.9938,06/07.0/2025,2000,g 19.0,4.0
# From MPC182889
190P/Mueller,e,2.1747,335.4758,50.5502,4.230599,0.1132664,0.52266590,18.6716,06/07.0/2025,2000,g 13.0,4.0
# From MPEC 2024-TD8
191P/McNaught,e,8.8395,98.1790,284.2680,3.640876,0.1418715,0.38513700,218.4622,06/07.0/2025,2000,g 13.0,4.0
# From MPC182889
192P/Shoemaker-Levy,e,24.5800,51.5815,313.0401,6.455685,0.0600884,0.77340155,22.7431,06/07.0/2025,2000,g 15.0,4.0
# From MPEC 2024-R10
193P/LINEAR-NEAT,e,10.6791,335.1861,8.1166,3.579526,0.1455344,0.39260937,201.3036,06/07.0/2025,2000,g 14.0,4.0
# From MPEC 2024-GJ3
194P/LINEAR,e,11.8035,349.5116,128.6173,4.122769,0.1177391,0.56339096,57.5369,06/07.0/2025,2000,g 16.0,4.0
# From MPC184418
195P/Hill,e,36.4168,243.0986,250.5995,6.444472,0.0602453,0.31094921,356.4087,06/07.0/2025,2000,g  8.5,4.0
# From MPEC 2024-GJ3
196P/Tichy,e,19.2950,24.1242,12.1370,3.806249,0.1327267,0.42753263,126.3315,06/07.0/2025,2000,g 13.5,4.0
# From MPEC 2023-UR6
197P/LINEAR,e,25.3240,66.2028,189.9473,2.907726,0.1987806,0.61927949,181.7708,06/07.0/2025,2000,g 16.5,2.0
# From MPEC 2024-VJ2
198P/ODAS,e,1.3400,358.4690,69.0495,3.592007,0.1447766,0.44465613,342.3210,06/07.0/2025,2000,g 12.5,4.0
# From MPEC 2024-Q20
199P/Shoemaker,e,24.9392,92.3438,191.7635,5.873715,0.0692364,0.50441521,46.3637,06/07.0/2025,2000,g 10.0,4.0
# From MPEC 2022-C56
200P/Larsen,e,12.0951,234.8103,134.3852,4.953273,0.0894058,0.33117232,191.3577,06/07.0/2025,2000,g  9.0,4.0
# From MPC 93588
201P/LONEOS,e,5.7371,41.5254,19.8020,3.354651,0.1604106,0.63751207,235.9821,06/07.0/2025,2000,g 14.0,4.0
# From MPC182889
202P/Scotti,e,2.1418,177.3005,274.4959,4.099151,0.1187581,0.25107909,45.8057,06/07.0/2025,2000,g 13.5,4.0
# From MPEC 2025-A40
203P/Korlevic,e,2.9760,290.2218,154.9356,4.668473,0.0977106,0.31638491,187.3627,06/07.0/2025,2000,g 14.5,2.0
# From MPEC 2024-JU4
204P/LINEAR-NEAT,e,6.5979,108.4733,356.7280,3.584193,0.1452503,0.48828598,135.4786,06/07.0/2025,2000,g 14.0,4.0
# From MPEC 2023_O39
205P/Giacobini,e,15.3004,179.6235,154.1547,3.543125,0.1477830,0.56718663,183.4604,06/07.0/2025,2000,g 13.0,4.0
# From MPC 75725
206P/Barnard-Boattini,e,33.6176,202.3418,189.5764,3.491443,0.1510764,0.55113847,234.9105,06/07.0/2025,2000,g 19.0,4.0
# From MPEC 2024-NE4
207P/NEAT,e,10.1986,198.1389,273.0274,3.886123,0.1286558,0.75852395,63.3156,06/07.0/2025,2000,g 16.0,4.0
# From MPC182889
208P/McMillan,e,4.4113,36.3327,310.7650,4.040881,0.1213361,0.37410257,34.7978,06/07.0/2025,2000,g 12.5,4.0
# From MPEC 2024-TD8
209P/LINEAR,e,21.2828,62.7647,152.4816,2.957855,0.1937487,0.67402898,63.4541,06/07.0/2025,2000,g 17.0,2.0
# From MPC105242
210P/Christensen,e,10.2819,93.8249,345.9167,3.160743,0.1753963,0.83407192,330.4073,06/07.0/2025,2000,g 13.5,4.0
# From MPEC 2024-JU4
211P/Hill,e,18.9246,117.1009,4.3500,3.548905,0.1474221,0.34448074,143.8610,06/07.0/2025,2000,g 12.5,4.0
# From MPEC 2024-GJ3
212P/NEAT,e,22.1490,97.9719,14.0596,3.902969,0.1278237,0.58675373,52.1331,06/07.0/2025,2000,g 17.0,2.0
# From MPC184418
213P/VanNess,e,10.4233,310.9338,6.4763,3.356646,0.1602676,0.40964056,91.6198,06/07.0/2025,2000,g 10.5,4.0
# From MPEC 2025-GB9
213P-B/Van Ness,e,10.4227,310.9302,6.4955,3.356528,0.1602761,0.40951370,91.6456,06/07.0/2025,2000,g 17.0,4.0
# From MPC 76570
213P-C/Van Ness,e,10.3509,5.2771,312.0709,3.354975,0.1603873,0.40952935,91.8437,06/07.0/2025,2000,g 17.5,4.0
# From MPC 92986
214P/LINEAR,e,15.1927,348.2119,190.1204,3.616512,0.1433076,0.48626218,141.1058,06/07.0/2025,2000,g 13.0,4.0
# From MPC184418
215P/NEAT,e,10.5763,56.6780,262.2519,4.335791,0.1091696,0.16493611,221.7568,06/07.0/2025,2000,g 11.0,4.0
# From MPEC 2024-N80
216P/LINEAR,e,9.0616,359.7818,151.7693,3.860270,0.1299504,0.44900904,67.1857,06/07.0/2025,2000,g 13.0,4.0
# From MPC184418
217P/LINEAR,e,12.8655,125.3714,247.0363,3.944271,0.1258213,0.68907459,1.6427,06/07.0/2025,2000,g 12.0,4.0
# From MPEC 2022-K19
218P/LINEAR,e,2.7263,174.6836,61.4031,3.061665,0.1839787,0.63092905,310.3508,06/07.0/2025,2000,g 16.0,4.0
# From MPC182889
219P/LINEAR,e,11.5176,230.9019,107.9586,3.656735,0.1409496,0.35575165,67.3619,06/07.0/2025,2000,g 11.0,4.0
# From MPEC 2024-A43
220P/McNaught,e,8.1209,150.0915,180.5839,3.120256,0.1788211,0.50039548,293.4528,06/07.0/2025,2000,g 15.0,4.0
# From MPEC 2022-UY9
221P/LINEAR,e,10.9095,226.9766,41.4818,3.387221,0.1581025,0.52127990,197.0224,06/07.0/2025,2000,g 14.5,4.0
# From MPC 92277
222P/LINEAR,e,5.0973,6.7547,346.2749,2.896285,0.1999596,0.71480366,78.0065,06/07.0/2025,2000,g 20.0,4.0
# From MPEC 2023-A50
223P/Skiff,e,27.0059,346.7057,37.9819,4.158269,0.1162346,0.41625385,269.5975,06/07.0/2025,2000,g 12.0,4.0
# From MPEC 2024-L77
224P/LINEAR-NEAT,e,13.3015,40.0413,16.8136,3.447157,0.1539971,0.40557083,151.0478,06/07.0/2025,2000,g 15.5,4.0
# From MPEC 2024-F91
225P/LINEAR,e,21.3614,14.2106,3.9063,3.647446,0.1414884,0.63816502,94.6754,06/07.0/2025,2000,g 18.0,4.0
# From MPEC 2024-MB8
